AKEBONO (EXOS-D)        
1 19822U 89016A   19025.84514358  .00033245  35083-6  60415-3 0  9992
2 19822  75.0306 322.9600 1809936  14.9880 349.8193 11.91013334978594
HST                     
1 20580U 90037B   19024.60527848  .00000427  00000-0  15111-4 0  9996
2 20580  28.4700  91.2698 0002778   8.4900 122.9512 15.09162227378867
POLAR                   
1 23802U 96013A   19024.08113696  .00000146  00000-0  00000+0 0  9994
2 23802  78.6715 257.6514 6855764 300.5010   9.7219  1.29844733109763
SWAS                    
1 25560U 98071A   19025.87285254  .00000042  00000-0  12504-4 0  9993
2 25560  69.8970 223.0643 0007144   1.7780 358.3400 14.93687436 93295
ORSTED                  
1 25635U 99008B   19025.89140209  .00000034  00000-0  15411-4 0  9990
2 25635  96.4653 163.6426 0139113 172.1126 188.2306 14.48126757 51281
CXO                     
1 25867U 99040B   19026.42083343  .00000495  00000-0  00000-0 0  9993
2 25867  69.2610 278.5349 7056239 237.0501 359.9578  0.37809414  7146
XMM-NEWTON              
1 25989U 99066A   19025.99606336 -.00000295  00000-0  00000+0 0  9998
2 25989  70.7547 337.5638 7773298  95.4849   0.4342  0.50139969 23833
TERRA                   
1 25994U 99068A   19025.67268487  .00000076  00000-0  27019-4 0  9992
2 25994  98.2069 102.3049 0001536 106.9896 253.1456 14.57117078 16226
CLUSTER II-FM7 (SAMBA)  
1 26410U 00041A   19027.69242243 -.00000027  00000-0  00000+0 0  9998
2 26410 131.1137 337.8178 4104020 168.7025 358.9949  0.44215606 20107
CLUSTER II-FM6 (SALSA)  
1 26411U 00041B   19027.77231244  .00000000  00000-0  00000+0 0  9997
2 26411 130.4454 338.9603 5055688 176.4248 358.9612  0.44281755 20033
CLUSTER II-FM5 (RUMBA)  
1 26463U 00045A   19028.01217889 -.00000089  00000-0  00000+0 0  9993
2 26463 134.0284 338.0099 4738256 175.2833 359.0870  0.44162099 20684
CLUSTER II-FM8 (TANGO)  
1 26464U 00045B   19019.93968294  .00000036  00000-0  00000-0 0  9990
2 26464 131.1020 337.7559 4104098 168.4581 205.0933  0.44216832 55989
ODIN                    
1 26702U 01007A   19025.67615265  .00000513  00000-0  37681-4 0  9998
2 26702  97.5815  45.4675 0010577 198.3304 161.7544 15.07705051980155
TIMED                   
1 26998U 01055B   19025.69482377  .00000064  00000-0  11011-4 0  9996
2 26998  74.0704 225.9056 0000133 257.9761 102.1404 14.88080318928867
RHESSI                  
1 27370U 02004A   19024.56085698  .00001538  00000-0  54745-4 0  9994
2 27370  38.0338  66.8892 0011832 136.9190 223.2509 15.31013440936103
INTEGRAL                
1 27540U 02048A   19026.56893870  .00000826  00000-0  00000+0 0  9991
2 27540  49.0418 153.9129 8684915 274.1424   0.4810  0.37602669 16493
CORIOLIS                
1 27640U 03001A   19025.89096844 -.00000021  00000-0  10909-4 0  9995
2 27640  98.7351  37.8806 0015021  61.0452   1.9643 14.18999185831294
SORCE                   
1 27651U 03004A   19025.85331773  .00000053  00000-0  19734-4 0  9998
2 27651  39.9957 285.9799 0021031  44.1162 316.1301 14.88949576868401
MOST                    
1 27843U 03031D   19025.88893117 -.00000022  00000-0  99288-5 0  9999
2 27843  98.7123  35.5721 0010967 117.6677 242.5614 14.20582818807397
SCISAT 1                
1 27858U 03036A   19025.74661290 -.00000011  00000-0  34953-5 0  9996
2 27858  73.9338 108.8735 0006560  70.0997 290.0883 14.77231271832532
SWIFT                   
1 28485U 04047A   19024.94878404  .00000784  00000-0  23299-4 0  9990
2 28485  20.5579 350.7686 0011469  93.8950 266.2795 15.04286222776646
FORMOSAT-3 FM6          
1 29047U 06011A   19025.59065937 -.00000035  00000-0  26335-5 0  9994
2 29047  71.9787  68.5280 0052100 221.5773 138.1397 14.28663476668668
FORMOSAT-3 FM1          
1 29048U 06011B   19025.87497012 -.00000067  00000-0 -98557-5 0  9990
2 29048  71.9663 339.4489 0044035 178.7066 181.4193 14.28611174671172
FORMOSAT-3 FM5          
1 29049U 06011C   19025.90504532  .00000077  00000-0  46652-4 0  9998
2 29049  72.0206 148.1569 0036016 210.0455 149.8616 14.28693504666960
FORMOSAT-3 FM3          
1 29050U 06011D   19024.93054427  .00000074  00000-0  25957-4 0  9997
2 29050  72.0168 348.2404 0049842 173.4759 186.7054 14.58757019682026
FORMOSAT-3 FM4          
1 29051U 06011E   19025.56530687  .00000041  00000-0  31791-4 0  9992
2 29051  72.0054  51.8608 0065985  84.6782 276.1878 14.28719380669501
FORMOSAT-3 FM2          
1 29052U 06011F   19024.76012167  .00000033  00000-0  29089-4 0  9990
2 29052  72.0351 126.1886 0039922 172.8840 187.2873 14.28818578667710
CLOUDSAT                
1 29107U 06016A   19025.84320654  .00000106  00000-0  30348-4 0  9990
2 29107  98.1705 331.7677 0002078 133.1777 226.9599 14.62294828678156
CALIPSO                 
1 29108U 06016B   19025.91116650  .00000127  00000-0  34369-4 0  9998
2 29108  98.1724 331.6368 0001296  78.5171 281.6176 14.62293530678018
HINODE (SOLAR-B)        
1 29479U 06041A   19025.93538818  .00000042  00000-0  16974-4 0  9991
2 29479  98.1692  36.3318 0017359 165.0623 195.1096 14.64969161659446
SJ-6C                   
1 29505U 06046A   19025.76093884 -.00000361  00000-0 -28117-4 0  9994
2 29505  97.8266  35.9242 0002175 324.5616  35.5465 14.94487996667624
SJ-6D                   
1 29506U 06046B   19025.81087526 -.00000651  00000-0 -56548-4 0  9998
2 29506  97.8473  35.7914 0002967  40.3308 319.8135 14.93418773667256
AGILE                   
1 31135U 07013A   19025.31970690  .00002352  00000-0  38964-4 0  9992
2 31135   2.4667 211.1272 0012036 149.4255 210.6501 15.31294905653837
AIM                     
1 31304U 07015A   19025.67842721  .00000647  00000-0  40810-4 0  9992
2 31304  97.9738 242.4064 0003988 305.3480  54.7376 15.12918190643742
FGRST (GLAST)           
1 33053U 08029A   19024.95886862  .00000506  00000-0  12207-4 0  9998
2 33053  25.5837 329.5895 0012120 230.0960 129.8510 15.11175996586159
WISE                    
1 36119U 09071A   19025.69687121  .00000588  00000-0  23246-4 0  9996
2 36119  97.3902  61.9095 0003785  55.5539 304.6059 15.29399112506041
SDO                     
1 36395U 10005A   19025.37519715 -.00000084  00000-0  00000+0 0  9999
2 36395  29.5211 130.0464 0000910  54.2016 333.1875  1.00268478 32960
CRYOSAT 2               
1 36508U 10013A   19025.86512333  .00000095  00000-0  22566-4 0  9994
2 36508  92.0275 344.5368 0008953 129.8126 230.3870 14.52177088466446
X-SAT                   
1 37389U 11015C   19025.72411166 -.00000020  00000-0  99076-5 0  9992
2 37389  98.5056  94.1658 0013795 341.1903  18.8766 14.24366353403868
GCOM-W1 (SHIZUKU)       
1 38337U 12025A   19024.87864105  .00000035  00000-0  17777-4 0  9990
2 38337  98.2268 326.8843 0002077  80.2644 346.0433 14.57108143355791
NUSTAR                  
1 38358U 12031A   19025.07343195  .00000910  00000-0  21599-4 0  9993
2 38358   6.0278   8.5692 0011406 109.9119 250.2239 14.88093281360000
RBSP A                  
1 38752U 12046A   19024.51430894 -.00000109  00000-0 -18457-3 0  9998
2 38752  10.0160 281.4605 6835221 303.9687   8.9293  2.68756782 62622
RBSP B                  
1 38753U 12046B   19016.90043745 -.00000038  00000-0 -10028-2 0  9994
2 38753  10.0577 299.4377 6823619 268.9891  18.9782  2.65130213 61899
NEOSSAT                 
1 39089U 13009D   19025.64368996  .00000019  00000-0  22032-4 0  9993
2 39089  98.5056 231.5501 0011252   4.0500 356.0774 14.34452196309611
IRIS                    
1 39197U 13033A   19025.93508899  .00000078  00000-0  17769-4 0  9996
2 39197  97.9415 209.1076 0028982  75.1927 285.2492 14.78598426300954
HISAKI (SPRINT-A)       
1 39253U 13049A   19025.98733150  .00000153  00000-0  12091-3 0  9997
2 39253  29.7184 257.8887 0136763 101.9440 259.6499 13.55200765266030
CASSIOPE                
1 39265U 13055A   19025.87633237  .00002973  00000-0  85128-4 0  9994
2 39265  80.9698 124.9843 0671286 346.6650  11.7507 14.26800202275200
STSAT-3                 
1 39422U 13066G   19025.79192861  .00000304  00000-0  37164-4 0  9998
2 39422  97.5785  76.7921 0024623  84.6655 275.7357 14.89693022281401
SWARM B                 
1 39451U 13067A   19025.83644765  .00000269  00000-0  10357-4 0  9996
2 39451  87.7490  72.1784 0002684  62.5263 297.6255 15.21476594287199
SWARM A                 
1 39452U 13067B   19025.89799196  .00001090  00000-0  23230-4 0  9999
2 39452  87.3488 316.0576 0002716  98.6002 261.5563 15.43591431290759
SWARM C                 
1 39453U 13067C   19025.89791676  .00001095  00000-0  23341-4 0  9993
2 39453  87.3490 317.4901 0002757  98.8731 261.2838 15.43591181290727
BRITE-TORONTO           
1 40020U 14033L   19025.92141769  .00000045  00000-0  16275-4 0  9997
2 40020  97.7594 237.5916 0086132 254.8439 104.3227 14.66547328246228
OCO 2                   
1 40059U 14035A   19025.89356369  .00000032  00000-0  17253-4 0  9994
2 40059  98.2200 328.9203 0001326  83.1726 276.9623 14.57111282242978
BRITE-PL 2              
1 40119U 14049B   19025.66696556  .00000081  00000-0  16185-4 0  9993
2 40119  97.9098 117.5691 0016757 335.6922  24.3500 14.84362657240304
RESURS P2               
1 40360U 14087A   19025.79322130  .00000498  00000-0  18030-4 0  9994
2 40360  97.2631 119.1220 0008633 196.2524 319.5606 15.32920360228371
MMS 1                   
1 40482U 15011A   19019.32654094 -.00001615  00000-0  00000+0 0  9992
2 40482   3.5092  97.9552 9046607  29.5161   0.0961  0.35511328  9724
MMS 2                   
1 40483U 15011B   19008.62013889 -.00001402  00000-0  00000-0 0  9990
2 40483   3.1095  93.7641 9095453  32.9263  72.5917  0.35463022  9778
MMS 3                   
1 40484U 15011C   19025.04246258 -.00001514  00000-0  00000+0 0  9997
2 40484   3.7469  98.9643 9040762  28.5170  10.5127  0.35507350  9734
MMS 4                   
1 40485U 15011D   19008.61805556 -.00001402  00000-0  00000-0 0  9991
2 40485   3.0904  93.5459 9095749  33.1417  72.2980  0.35462811  9676
ASTROSAT                
1 40930U 15052A   19024.97569326  .00000596  00000-0 -55206-5 0  9996
2 40930   5.9890  13.6618 0010069 268.2182  91.7307 14.76231666179803
DAMPE                   
1 41173U 15078A   19025.96947675  .00000064  00000-0  55361-5 0  9992
2 41173  97.2987  27.6953 0012083 241.4678 170.2835 15.23757196172965
PISAT                   
1 41784U 16059B   19025.67266597  .00000081  00000-0  24658-4 0  9998
2 41784  98.0902  88.8648 0033216 114.4329 246.0345 14.63397796124494
HXMT (HUIYAN)           
1 42758U 17034A   19025.85468396  .00000093  00000-0  19623-4 0  9994
2 42758  43.0188 305.4191 0009197  62.6778   6.7359 15.08499357 89050
FLYING LAPTOP           
1 42831U 17042G   19025.84455176  .00000165  00000-0  22123-4 0  9995
2 42831  97.5809 284.6103 0014131 173.1601 186.9814 14.90946349 83503
PICSAT                  
1 43132U 18004X   19025.91707814  .00001009  00000-0  45693-4 0  9991
2 43132  97.5073  93.9145 0010899  46.0578 314.1556 15.23182857 57610
ZHANGZHENG-1 (CSES)     
1 43194U 18015C   19025.55746381  .00000692  00000-0  34114-4 0  9996
2 43194  97.3740 154.1666 0017850  92.5036 267.8244 15.21064594 54311
